SL-16 R/B               
1 25400U 98043G   26058.27725144  .00000069  00000+0  47885-4 0  9998
2 25400  98.8236  11.5682 0010687  48.8523 311.3577 14.26047046437504
SL-16 R/B               
1 25407U 98045B   26058.11947839 -.00000206  00000+0 -79735-4 0  9991
2 25407  71.0109 203.8011 0006168  24.7434 335.3984 14.16190761425606
ISS (ZARYA)             
1 25544U 98067A   26058.25169714  .00013796  00000+0  26393-3 0  9997
2 25544  51.6322 123.9568 0008342 138.2013 221.9613 15.48333785554713
CZ-4B R/B               
1 25732U 99025C   26058.15533768  .00000056  00000+0  47940-4 0  9991
2 25732  98.6649 102.6854 0037329  16.9797  52.3906 14.18262955386670
OKEAN-O                 
1 25860U 99039A   26058.17493092  .00000703  00000+0  99052-4 0  9995
2 25860  97.9467 118.1723 0001573  73.6255 286.5130 14.80316109432830
SL-16 R/B               
1 25861U 99039B   26058.09718160  .00000559  00000+0  77801-4 0  9990
2 25861  97.9990 117.2084 0013495 294.0108  65.9691 14.81714299435291
DELTA 2 R/B             
1 25876U 99041E   26058.24756103  .00001712  00000+0  31306-3 0  9996
2 25876  51.7661 342.9842 0502260 317.6002  38.7124 14.11796964361555
HELIOS 1B               
1 25977U 99064A   26058.22128912  .00001835  00000+0  20816-3 0  9992
2 25977  98.1707 320.1565 0002475  89.2491 270.9008 14.87647595683703
TERRA                   
1 25994U 99068A   26058.23277006  .00000473  00000+0  10558-3 0  9994
2 25994  97.9617 112.0659 0001976 178.1687 221.9941 14.61001866393551
SL-16 R/B               
1 26070U 00006B   26058.27346333  .00000296  00000+0  17434-3 0  9991
2 26070  71.0016 119.7406 0017446 204.3848 155.6451 14.15821708347087
TITAN 4B R/B            
1 26474U 00047B   26058.22737518  .00003947  00000+0  25030-3 0  9995
2 26474  67.9883  69.9286 0037787  47.9660 312.4695 15.09447656391336
ENVISAT                 
1 27386U 02009A   26057.82505806  .00000123  00000+0  53807-4 0  9993
2 27386  98.3707  11.6823 0001379  85.5722 285.8194 14.39032208257612
