CCSDS_OMM_VERS = 2.0
CREATION_DATE  = 
ORIGINATOR     = 

OBJECT_NAME    = SL-16 R/B
OBJECT_ID      = 1998-043G
CENTER_NAME    = EARTH
REF_FRAME      = TEME
TIME_SYSTEM    = UTC
MEAN_ELEMENT_THEORY = SGP/SGP4

EPOCH          = 2026-02-27T06:39:14.524416
MEAN_MOTION    = 14.26047046
ECCENTRICITY   = .00106873
INCLINATION    = 98.8236
RA_OF_ASC_NODE = 11.5682
ARG_OF_PERICENTER = 48.8523
MEAN_ANOMALY   = 311.3577

EPHEMERIS_TYPE = 0
CLASSIFICATION_TYPE = U
NORAD_CAT_ID   = 25400
ELEMENT_SET_NO = 999
REV_AT_EPOCH   = 43750
BSTAR          = .47884739E-4
MEAN_MOTION_DOT = .69E-6
MEAN_MOTION_DDOT = 0

CCSDS_OMM_VERS = 2.0
CREATION_DATE  = 
ORIGINATOR     = 

OBJECT_NAME    = SL-16 R/B
OBJECT_ID      = 1998-045B
CENTER_NAME    = EARTH
REF_FRAME      = TEME
TIME_SYSTEM    = UTC
MEAN_ELEMENT_THEORY = SGP/SGP4

EPOCH          = 2026-02-27T02:52:02.932896
MEAN_MOTION    = 14.16190761
ECCENTRICITY   = .00061682
INCLINATION    = 71.0109
RA_OF_ASC_NODE = 203.8011
ARG_OF_PERICENTER = 24.7434
MEAN_ANOMALY   = 335.3984

EPHEMERIS_TYPE = 0
CLASSIFICATION_TYPE = U
NORAD_CAT_ID   = 25407
ELEMENT_SET_NO = 999
REV_AT_EPOCH   = 42560
BSTAR          = -.79734978E-4
MEAN_MOTION_DOT = -.206E-5
MEAN_MOTION_DDOT = 0

CCSDS_OMM_VERS = 2.0
CREATION_DATE  = 
ORIGINATOR     = 

OBJECT_NAME    = ISS (ZARYA)
OBJECT_ID      = 1998-067A
CENTER_NAME    = EARTH
REF_FRAME      = TEME
TIME_SYSTEM    = UTC
MEAN_ELEMENT_THEORY = SGP/SGP4

EPOCH          = 2026-02-27T06:02:26.632896
MEAN_MOTION    = 15.48333785
ECCENTRICITY   = .00083426
INCLINATION    = 51.6322
RA_OF_ASC_NODE = 123.9568
ARG_OF_PERICENTER = 138.2013
MEAN_ANOMALY   = 221.9613

EPHEMERIS_TYPE = 0
CLASSIFICATION_TYPE = U
NORAD_CAT_ID   = 25544
ELEMENT_SET_NO = 999
REV_AT_EPOCH   = 55471
BSTAR          = .26392566E-3
MEAN_MOTION_DOT = .13796E-3
MEAN_MOTION_DDOT = 0

CCSDS_OMM_VERS = 2.0
CREATION_DATE  = 
ORIGINATOR     = 

OBJECT_NAME    = CZ-4B R/B
OBJECT_ID      = 1999-025C
CENTER_NAME    = EARTH
REF_FRAME      = TEME
TIME_SYSTEM    = UTC
MEAN_ELEMENT_THEORY = SGP/SGP4

EPOCH          = 2026-02-27T03:43:41.175552
MEAN_MOTION    = 14.18262955
ECCENTRICITY   = .0037329
INCLINATION    = 98.6649
RA_OF_ASC_NODE = 102.6854
ARG_OF_PERICENTER = 16.9797
MEAN_ANOMALY   = 52.3906

EPHEMERIS_TYPE = 0
CLASSIFICATION_TYPE = U
NORAD_CAT_ID   = 25732
ELEMENT_SET_NO = 999
REV_AT_EPOCH   = 38667
BSTAR          = .47939629E-4
MEAN_MOTION_DOT = .56E-6
MEAN_MOTION_DDOT = 0

CCSDS_OMM_VERS = 2.0
CREATION_DATE  = 
ORIGINATOR     = 

OBJECT_NAME    = OKEAN-O
OBJECT_ID      = 1999-039A
CENTER_NAME    = EARTH
REF_FRAME      = TEME
TIME_SYSTEM    = UTC
MEAN_ELEMENT_THEORY = SGP/SGP4

EPOCH          = 2026-02-27T04:11:54.031488
MEAN_MOTION    = 14.80316109
ECCENTRICITY   = .0001573
INCLINATION    = 97.9467
RA_OF_ASC_NODE = 118.1723
ARG_OF_PERICENTER = 73.6255
MEAN_ANOMALY   = 286.5130

EPHEMERIS_TYPE = 0
CLASSIFICATION_TYPE = U
NORAD_CAT_ID   = 25860
ELEMENT_SET_NO = 999
REV_AT_EPOCH   = 43283
BSTAR          = .99051909E-4
MEAN_MOTION_DOT = .703E-5
MEAN_MOTION_DDOT = 0

CCSDS_OMM_VERS = 2.0
CREATION_DATE  = 
ORIGINATOR     = 

OBJECT_NAME    = SL-16 R/B
OBJECT_ID      = 1999-039B
CENTER_NAME    = EARTH
REF_FRAME      = TEME
TIME_SYSTEM    = UTC
MEAN_ELEMENT_THEORY = SGP/SGP4

EPOCH          = 2026-02-27T02:19:56.490240
MEAN_MOTION    = 14.81714299
ECCENTRICITY   = .0013495
INCLINATION    = 97.9990
RA_OF_ASC_NODE = 117.2084
ARG_OF_PERICENTER = 294.0108
MEAN_ANOMALY   = 65.9691

EPHEMERIS_TYPE = 0
CLASSIFICATION_TYPE = U
NORAD_CAT_ID   = 25861
ELEMENT_SET_NO = 999
REV_AT_EPOCH   = 43529
BSTAR          = .77801374E-4
MEAN_MOTION_DOT = .559E-5
MEAN_MOTION_DDOT = 0

CCSDS_OMM_VERS = 2.0
CREATION_DATE  = 
ORIGINATOR     = 

OBJECT_NAME    = DELTA 2 R/B
OBJECT_ID      = 1999-041E
CENTER_NAME    = EARTH
REF_FRAME      = TEME
TIME_SYSTEM    = UTC
MEAN_ELEMENT_THEORY = SGP/SGP4

EPOCH          = 2026-02-27T05:56:29.272992
MEAN_MOTION    = 14.11796964
ECCENTRICITY   = .05022603
INCLINATION    = 51.7661
RA_OF_ASC_NODE = 342.9842
ARG_OF_PERICENTER = 317.6002
MEAN_ANOMALY   = 38.7124

EPHEMERIS_TYPE = 0
CLASSIFICATION_TYPE = U
NORAD_CAT_ID   = 25876
ELEMENT_SET_NO = 999
REV_AT_EPOCH   = 36155
BSTAR          = .31305502E-3
MEAN_MOTION_DOT = .1712E-4
MEAN_MOTION_DDOT = 0

CCSDS_OMM_VERS = 2.0
CREATION_DATE  = 
ORIGINATOR     = 

OBJECT_NAME    = HELIOS 1B
OBJECT_ID      = 1999-064A
CENTER_NAME    = EARTH
REF_FRAME      = TEME
TIME_SYSTEM    = UTC
MEAN_ELEMENT_THEORY = SGP/SGP4

EPOCH          = 2026-02-27T05:18:39.379968
MEAN_MOTION    = 14.87647595
ECCENTRICITY   = .0002475
INCLINATION    = 98.1707
RA_OF_ASC_NODE = 320.1565
ARG_OF_PERICENTER = 89.2491
MEAN_ANOMALY   = 270.9008

EPHEMERIS_TYPE = 0
CLASSIFICATION_TYPE = U
NORAD_CAT_ID   = 25977
ELEMENT_SET_NO = 999
REV_AT_EPOCH   = 68370
BSTAR          = .2081566E-3
MEAN_MOTION_DOT = .1835E-4
MEAN_MOTION_DDOT = 0

CCSDS_OMM_VERS = 2.0
CREATION_DATE  = 
ORIGINATOR     = 

OBJECT_NAME    = TERRA
OBJECT_ID      = 1999-068A
CENTER_NAME    = EARTH
REF_FRAME      = TEME
TIME_SYSTEM    = UTC
MEAN_ELEMENT_THEORY = SGP/SGP4

EPOCH          = 2026-02-27T05:35:11.333184
MEAN_MOTION    = 14.61001866
ECCENTRICITY   = .00019762
INCLINATION    = 97.9617
RA_OF_ASC_NODE = 112.0659
ARG_OF_PERICENTER = 178.1687
MEAN_ANOMALY   = 221.9941

EPHEMERIS_TYPE = 0
CLASSIFICATION_TYPE = U
NORAD_CAT_ID   = 25994
ELEMENT_SET_NO = 999
REV_AT_EPOCH   = 39355
BSTAR          = .10557901E-3
MEAN_MOTION_DOT = .473E-5
MEAN_MOTION_DDOT = 0

CCSDS_OMM_VERS = 2.0
CREATION_DATE  = 
ORIGINATOR     = 

OBJECT_NAME    = SL-16 R/B
OBJECT_ID      = 2000-006B
CENTER_NAME    = EARTH
REF_FRAME      = TEME
TIME_SYSTEM    = UTC
MEAN_ELEMENT_THEORY = SGP/SGP4

EPOCH          = 2026-02-27T06:33:47.231712
MEAN_MOTION    = 14.15821708
ECCENTRICITY   = .00174469
INCLINATION    = 71.0016
RA_OF_ASC_NODE = 119.7406
ARG_OF_PERICENTER = 204.3848
MEAN_ANOMALY   = 155.6451

EPHEMERIS_TYPE = 0
CLASSIFICATION_TYPE = U
NORAD_CAT_ID   = 26070
ELEMENT_SET_NO = 999
REV_AT_EPOCH   = 34708
BSTAR          = .17433721E-3
MEAN_MOTION_DOT = .296E-5
MEAN_MOTION_DDOT = 0

CCSDS_OMM_VERS = 2.0
CREATION_DATE  = 
ORIGINATOR     = 

OBJECT_NAME    = TITAN 4B R/B
OBJECT_ID      = 2000-047B
CENTER_NAME    = EARTH
REF_FRAME      = TEME
TIME_SYSTEM    = UTC
MEAN_ELEMENT_THEORY = SGP/SGP4

EPOCH          = 2026-02-27T05:27:25.215552
MEAN_MOTION    = 15.09447656
ECCENTRICITY   = .00377873
INCLINATION    = 67.9883
RA_OF_ASC_NODE = 69.9286
ARG_OF_PERICENTER = 47.9660
MEAN_ANOMALY   = 312.4695

EPHEMERIS_TYPE = 0
CLASSIFICATION_TYPE = U
NORAD_CAT_ID   = 26474
ELEMENT_SET_NO = 999
REV_AT_EPOCH   = 39133
BSTAR          = .25029656E-3
MEAN_MOTION_DOT = .3947E-4
MEAN_MOTION_DDOT = 0

CCSDS_OMM_VERS = 2.0
CREATION_DATE  = 
ORIGINATOR     = 

OBJECT_NAME    = ENVISAT
OBJECT_ID      = 2002-009A
CENTER_NAME    = EARTH
REF_FRAME      = TEME
TIME_SYSTEM    = UTC
MEAN_ELEMENT_THEORY = SGP/SGP4

EPOCH          = 2026-02-26T19:48:05.016384
MEAN_MOTION    = 14.39032208
ECCENTRICITY   = .00013798
INCLINATION    = 98.3707
RA_OF_ASC_NODE = 11.6823
ARG_OF_PERICENTER = 85.5722
MEAN_ANOMALY   = 285.8194

EPHEMERIS_TYPE = 0
CLASSIFICATION_TYPE = U
NORAD_CAT_ID   = 27386
ELEMENT_SET_NO = 999
REV_AT_EPOCH   = 25761
BSTAR          = .53807434E-4
MEAN_MOTION_DOT = .123E-5
MEAN_MOTION_DDOT = 0

